HIMAWARI-9              
1 41836U 16064A   24246.55362662 -.00000286  00000+0  00000+0 0  9997
2 41836   0.0477 231.1073 0000840 329.2148 121.9314  1.00273305 28754
SHIJIAN-17 (SJ-17)      
1 41838U 16065A   24246.69920641 -.00000038  00000+0  00000+0 0  9997
2 41838   4.0816  80.4735 0001450 234.7022  88.1548  1.00273580 28686
GOES 16                 
1 41866U 16071A   24245.91233405 -.00000261  00000+0  00000+0 0  9992
2 41866   0.0821 280.1400 0000460 301.0318  13.6015  1.00270635 28559
TIANLIAN 1-04           
1 41869U 16072A   24245.81924980  .00000017  00000+0  00000+0 0  9998
2 41869   0.0227 132.5789 0037097  25.2915 295.2971  1.00272661 28758
WGS F8 (USA 272)        
1 41879U 16075A   24246.31051771 -.00000214  00000+0  00000+0 0  9997
2 41879   0.0173 129.6859 0000125  89.0899  24.7495  1.00272611 28374
FENGYUN 4A              
1 41882U 16077A   24246.44515529 -.00000211  00000+0  00000+0 0  9990
2 41882   0.6486  85.9749 0007970 342.5034 160.4450  1.00276135 28437
ECHOSTAR 19             
1 41893U 16079A   24245.21368970 -.00000153  00000+0  00000+0 0  9999
2 41893   0.0124 121.7326 0001576  48.4160 150.5382  1.00272565 28145
JCSAT-110A (JCSAT-15)   
1 41903U 16082A   24245.03521510 -.00000366  00000+0  00000+0 0  9992
2 41903   0.0083 100.6997 0000802 105.7869 256.9392  1.00271900 28206
STAR ONE D1             
1 41904U 16082B   24245.59285449 -.00000225  00000+0  00000+0 0  9996
2 41904   0.0240  93.2570 0001949  47.9168 329.5056  1.00272320 28221
TJS-2                   
1 41911U 17001A   24246.15506273 -.00000018  00000+0  00000+0 0  9990
2 41911   0.0194 206.7882 0000214 345.2207 272.1212  1.00269964 28177
SBIRS GEO-4 (USA 273)   
1 41937U 17004A   24245.90804153 -.00000156  00000+0  00000+0 0  9994
2 41937   1.4204   5.3570 0001777 167.7166  38.5617  1.00272071 28058
HISPASAT 36W-1          
1 41942U 17006A   24245.92006640 -.00000257  00000+0  00000+0 0  9991
2 41942   0.0124  38.5753 0001000 124.3181 113.8841  1.00271962 27666
TELKOM 3S               
1 41944U 17007A   24246.54305166 -.00000374  00000+0  00000+0 0  9998
2 41944   0.0125 108.0717 0002365  67.8138 119.7876  1.00272161 27665
INTELSAT 32E (IS-32E)   
1 41945U 17007B   24246.49093404 -.00000280  00000+0  00000+0 0  9998
2 41945   0.0126 111.8043 0000104 110.6248 253.2538  1.00270566 27700
ECHOSTAR 23             
1 42070U 17014A   24246.12001175 -.00000070  00000+0  00000+0 0  9997
2 42070   0.0289 138.8450 0002146  16.4775 119.7424  1.00269956 27393
WGS F9 (USA 275)        
1 42075U 17016A   24245.85330690 -.00000110  00000+0  00000+0 0  9995
2 42075   0.0246 124.9413 0000445 128.7149  23.0236  1.00270192 27345
SES-10                  
1 42432U 17017A   24245.41323053 -.00000287  00000+0  00000+0 0  9995
2 42432   0.0209  74.7752 0002532  91.2362 256.9062  1.00271609 27178
CHINASAT 16 (SJ-13)     
1 42662U 17018A   24246.53862381 -.00000363  00000+0  00000+0 0  9992
2 42662   0.0410  99.1027 0006734 117.5020  69.9960  1.00273186 27197
KOREASAT 7              
1 42691U 17023A   24245.89861788 -.00000375  00000+0  00000+0 0  9991
2 42691   0.0324  22.3153 0001452 176.4938 222.1161  1.00273513 26891
SGDC                    
1 42692U 17023B   24245.26096123 -.00000264  00000+0  00000+0 0  9993
2 42692   0.0206 117.6235 0002321  59.3927 182.9852  1.00270460 26857
GSAT-9                  
1 42695U 17024A   24246.08960365 -.00000298  00000+0  00000+0 0  9993
2 42695   0.0755 267.6307 0002356 267.9137 295.7479  1.00268131 26886
INMARSAT 5-F4           
1 42698U 17025A   24245.15165571  .00000060  00000+0  00000+0 0  9996
2 42698   0.0276 134.0208 0000247  84.0063 233.8839  1.00269975 26719
SES-15                  
1 42709U 17026A   24241.39632781  .00000046  00000+0  00000+0 0  9998
2 42709   0.0211  33.3417 0000569 186.3158 130.9761  1.00268056   848
QZS-2 (MICHIBIKI-2)     
1 42738U 17028A   24245.88215118 -.00000164  00000+0  00000+0 0  9993
2 42738  40.4558 252.6539 0751417 270.1667 277.5365  1.00264392 26570
VIASAT-2                
1 42740U 17029A   24245.41262237 -.00000280  00000+0  00000+0 0  9999
2 42740   0.0184 131.2279 0000186   2.2702 286.2007  1.00274490 26634
EUTELSAT 172B           
1 42741U 17029B   24245.88988353 -.00000019  00000+0  00000+0 0  9995
2 42741   0.0103 174.7090 0000226 168.3052 130.8648  1.00271898 27181
GSAT-19                 
1 42747U 17031A   24246.00833684  .00000112  00000+0  00000+0 0  9998
2 42747   0.0497 286.8088 0003587 170.9401 294.7776  1.00273733 26580
ECHOSTAR 21             
1 42749U 17032A   24245.85773779  .00000052  00000+0  00000+0 0  9994
2 42749   2.4047 322.1487 0002290 200.6425 137.7279  1.00271891 26579
BULGARIASAT-1           
1 42801U 17038A   24246.14220444 -.00000001  00000+0  00000+0 0  9993
2 42801   0.0360 255.5695 0002710 275.4248 223.8864  1.00272984 26368
HELLAS-SAT 3            
1 42814U 17040A   24246.29285338  .00000140  00000+0  00000+0 0  9992
2 42814   0.0803  44.1549 0001623  58.4557  23.7458  1.00275002 26313
GSAT-17                 
1 42815U 17040B   24242.01157830 -.00000273  00000+0  00000+0 0  9992
2 42815   0.0604 282.7035 0003603 328.5021 184.1486  1.00270252 26191
INTELSAT 35E (IS-35E)   
1 42818U 17041A   24246.49232413 -.00000250  00000+0  00000+0 0  9998
2 42818   0.0262 148.2525 0001976 359.5902 337.0169  1.00268191 26261
COSMOS 2520             
1 42907U 17046A   24246.28729899  .00000125  00000+0  00000+0 0  9998
2 42907   0.0253 112.9349 0000514  37.1034 340.3128  1.00272114 25849
TDRS 13                 
1 42915U 17047A   24246.13951115 -.00000109  00000+0  00000+0 0  9993
2 42915   3.5850 346.2811 0016009 126.7788 267.5153  1.00272483 25838
QZS-3 (MICHIBIKI-3)     
1 42917U 17048A   24246.54601769 -.00000359  00000+0  00000+0 0  9995
2 42917   0.0560 187.5245 0001744 341.2140 136.9820  1.00268063 25821
AMAZONAS 5              
1 42934U 17053A   24241.05098170 -.00000296  00000+0  00000+0 0  9997
2 42934   0.0386 310.5672 0001746 253.5919  89.9165  1.00269852 25443
ASIASAT 9               
1 42942U 17057A   24245.90539744 -.00000373  00000+0  00000+0 0  9991
2 42942   0.0183 124.5136 0001980  31.5189 273.5515  1.00270334 25300
INTELSAT 37E (IS-37E)   
1 42950U 17059A   24246.42410435 -.00000152  00000+0  00000+0 0  9990
2 42950   0.0156 125.3107 0003066  51.8655 299.5560  1.00272733 25501
BSAT-4A                 
1 42951U 17059B   24245.71398865 -.00000364  00000+0  00000+0 0  9999
2 42951   0.0074 354.1762 0001637 117.6282 236.4217  1.00266442 25249
QZS-4 (MICHIBIKI-4)     
1 42965U 17062A   24245.64090965 -.00000347  00000+0  00000+0 0  9991
2 42965  40.4794 351.8242 0749456 269.3151  90.8168  1.00281359 25269
SES-11 (ECHOSTAR 105)   
1 42967U 17063A   24245.63236984 -.00000103  00000+0  00000+0 0  9996
2 42967   0.0508 299.5253 0002067 228.0454 296.3993  1.00272177 25171
KOREASAT 5A             
1 42984U 17067A   24245.89574044 -.00000372  00000+0  00000+0 0  9997
2 42984   0.0204 101.2797 0000886  74.1395 241.7302  1.00272861 24971
ALCOMSAT 1              
1 43039U 17078A   24246.13690472 -.00000199  00000+0  00000+0 0  9990
2 43039   0.0364 223.6494 0002455 320.8721 181.7446  1.00270195 24724
SBIRS GEO-3 (USA 282)   
1 43162U 18009A   24246.53938270  .00000118  00000+0  00000+0 0  9997
2 43162   2.2797 338.8118 0001671 198.9876 199.1395  1.00272964 24295
AL YAH 3                
1 43174U 18012A   24245.42252674 -.00000170  00000+0  00000+0 0  9997
2 43174   0.0455 279.2491 0001862 256.7527 297.0576  1.00271449 24291
SES-14                  
1 43175U 18012B   24245.91780751 -.00000291  00000+0  00000+0 0  9998
2 43175   0.0084 107.7482 0001110  56.4357 100.2834  1.00272507   479
GOES 17                 
1 43226U 18022A   24245.11959684 -.00000105  00000+0  00000+0 0  9995
2 43226   0.0139 118.2722 0002039  85.6401  75.2120  1.00270172 23869
HISPASAT 30W-6          
1 43228U 18023A   24245.42052848 -.00000230  00000+0  00000+0 0  9997
2 43228   0.0401  49.0934 0003116  86.2544 327.1132  1.00272363 23867
SUPERBIRD-B3            
1 43271U 18033A   24245.89771648 -.00000106  00000+0  00000+0 0  9995
2 43271   0.0168 210.8963 0001334 305.7905 310.0117  1.00271823 23511
HYLAS 4                 
1 43272U 18033B   24246.07827244 -.00000246  00000+0  00000+0 0  9996
2 43272   0.0763 270.5579 0001320 294.5996 131.2199  1.00270086 23512
IRNSS-1I                
1 43286U 18035A   24244.14983108  .00000074  00000+0  00000+0 0  9999
2 43286  29.2812  84.4418 0019590 176.6233 187.8942  1.00278421 23515
USA 283                 
1 43339U 18036A   24244.53891780 -.00000334  00000+0  00000+0 0  9996
2 43339   0.0126 124.3244 0000066 191.7955 352.1844  1.00269145   838
COSMOS 2526             
1 43432U 18037A   24246.20257737 -.00000357  00000+0  00000+0 0  9990
2 43432   0.0270 110.5430 0000203 118.4697 313.8164  1.00273201 23414
APSTAR-6C               
1 43450U 18041A   24246.47596778 -.00000329  00000+0  00000+0 0  9994
2 43450   0.0372 326.1344 0002831 301.7824  19.5241  1.00270377 23297
BANGABANDHUSAT-1        
1 43463U 18044A   24246.20257737 -.00000375  00000+0  00000+0 0  9992
2 43463   0.0194 120.1163 0002562  63.3134 350.4299  1.00272077 23187
SES-12                  
1 43488U 18049A   24246.08916924 -.00000282  00000+0  00000+0 0  9997
2 43488   0.0210  88.5285 0001647 151.7479 228.5457  1.00272717 22868
FENGYUN 2H              
1 43491U 18050A   24246.08612841 -.00000144  00000+0  00000+0 0  9991
2 43491   1.3386  86.6356 0001221 104.7876 260.7590  1.00274849 22960
BEIDOU-2 IGSO-7         
1 43539U 18057A   24245.74534693 -.00000172  00000+0  00000+0 0  9992
2 43539  55.1495 168.7227 0078573 233.9397 319.1272  1.00288832 22588
TELSTAR 19V             
1 43562U 18059A   24242.02175216 -.00000295  00000+0  00000+0 0  9996
2 43562   0.0215 173.6060 0002955 338.7993 130.1214  1.00270359 22559
